FENGYUN 1C DEB
1 46989U 99025EZP 25308.95739037  .00004923  00000+0  39477-2 0  9991
2 46989  99.5054 110.5528 0237608  78.6879  74.5934 13.78855649705216